NORAD_CAT_ID,OBJECT_NAME,OBJECT_TYPE,EPOCH,MEAN_MOTION,ECCENTRICITY,INCLINATION,RA_OF_ASC_NODE,ARG_OF_PERICENTER,MEAN_ANOMALY,BSTAR,MEAN_MOTION_DOT,MEAN_MOTION_DDOT,TLE_LINE0,TLE_LINE1,TLE_LINE2,SEMIMAJOR_AXIS,PERIOD,APOGEE,PERIGEE,DECAYED
51975.0,STARLINK-3674,PAYLOAD,2022-12-03 04:00:37,15.08843203,0.0003365,53.2172,342.5799,15.9474,344.1624,2.2229e-05,6.5e-07,0.0,0 STARLINK-3674,1 51975U 22025V   22337.16709851  .00000065  00000-0  22229-4 0  9994,2 51975  53.2172 342.5799 0003365  15.9474 344.1624 15.08843203 42289,6917.871,95.437,542.063,537.408,0.0
51975.0,STARLINK-3674,PAYLOAD,2022-12-03 10:22:09,15.08840304,0.0002984,53.2175,341.3878,23.4434,336.6694,9.8458e-05,1.279e-05,0.0,0 STARLINK-3674,1 51975U 22025V   22337.43205852  .00001279  00000-0  98458-4 0  9991,2 51975  53.2175 341.3878 0002984  23.4434 336.6694 15.08840304 41217,6917.879,95.438,541.809,537.68,0.0
51975.0,STARLINK-3674,PAYLOAD,2022-12-04 10:12:57,15.08837559,0.0003109,53.2185,336.9284,23.1736,336.9395,-8.9601e-05,-1.714e-05,0.0,0 STARLINK-3674,1 51975U 22025V   22338.42566420 -.00001714  00000-0 -89601-4 0  9998,2 51975  53.2185 336.9284 0003109  23.1736 336.9395 15.08837559 42479,6917.888000000001,95.438,541.904,537.602,0.0
51975.0,STARLINK-3674,PAYLOAD,2022-12-04 16:34:30,15.08830813,0.0003082,53.2173,335.7381,24.7548,335.3591,-1.9492e-05,-5.99e-06,0.0,0 STARLINK-3674,1 51975U 22025V   22338.69062978 -.00000599  00000-0 -19492-4 0  9997,2 51975  53.2173 335.7381 0003082  24.7548 335.3591 15.08830813 41408,6917.908,95.438,541.906,537.641,0.0
51975.0,STARLINK-3674,PAYLOAD,2022-12-05 11:39:06,15.08851417,0.0003145,53.2166,332.1686,26.0163,334.0986,0.00015598,2.196e-05,0.0,0 STARLINK-3674,1 51975U 22025V   22339.48549423  .00002196  00000-0  15598-3 0  9995,2 51975  53.2166 332.1686 0003145  26.0163 334.0986 15.08851417 42630,6917.845,95.437,541.886,537.535,0.0
51975.0,STARLINK-3674,PAYLOAD,2022-12-05 16:25:16,15.08846459,0.000322,53.2157,331.2766,28.2627,331.8540000000001,0.00020157,2.922e-05,0.0,0 STARLINK-3674,1 51975U 22025V   22339.68421889  .00002922  00000-0  20157-3 0  9996,2 51975  53.2157 331.2766 0003220  28.2627 331.8540 15.08846459 42666,6917.861,95.437,541.953,537.498,0.0
51975.0,STARLINK-3674,PAYLOAD,2022-12-06 09:54:31,15.088393599999998,0.0003484,53.2164,328.0067,26.945,333.1722,-1.1335e-05,-4.69e-06,0.0,0 STARLINK-3674,1 51975U 22025V   22340.41286111 -.00000469  00000-0 -11335-4 0  9991,2 51975  53.2164 328.0067 0003484  26.9450 333.1722 15.08839360 42775,6917.882,95.438,542.158,537.337,0.0
51975.0,STARLINK-3674,PAYLOAD,2022-12-06 16:16:03,15.08834406,0.0003051,53.2158,326.8159,25.4731,334.6411,-5.8829e-05,-1.225e-05,0.0,0 STARLINK-3674,1 51975U 22025V   22340.67782286 -.00001225  00000-0 -58829-4 0  9993,2 51975  53.2158 326.8159 0003051  25.4731 334.6411 15.08834406 41701,6917.897,95.438,541.873,537.6519999999998,0.0
51975.0,STARLINK-3674,PAYLOAD,2022-12-07 11:20:41,15.08838175,0.0003046,53.2161,323.2476,24.1889,335.9245,4.86e-05,4.85e-06,0.0,0 STARLINK-3674,1 51975U 22025V   22341.47270228  .00000485  00000-0  48600-4 0  9991,2 51975  53.2161 323.2476 0003046  24.1889 335.9245 15.08838175 42934,6917.886,95.438,541.8580000000002,537.644,0.0
51975.0,STARLINK-3674,PAYLOAD,2022-12-07 16:06:51,15.08836299,0.000313,53.2157,322.355,26.7959,333.3194,7.4284e-05,8.94e-06,0.0,0 STARLINK-3674,1 51975U 22025V   22341.67142448  .00000894  00000-0  74284-4 0  9996,2 51975  53.2157 322.3550 0003130  26.7959 333.3194 15.08836299 41852,6917.892,95.438,541.922,537.591,0.0
51975.0,STARLINK-3674,PAYLOAD,2022-12-08 08:00:42,15.08856569,0.0002921,53.2157,319.3819,21.6376,338.4739,0.00089315,0.00013962,0.0,0 STARLINK-3674,1 51975U 22025V   22342.33382004  .00013962  00000-0  89315-3 0  9994,2 51975  53.2157 319.3819 0002921  21.6376 338.4739 15.08856569 41954,6917.83,95.437,541.715,537.674,0.0
51975.0,STARLINK-3674,PAYLOAD,2022-12-08 15:57:37,15.08856173,0.0002868,53.2156,317.8951,15.5416,344.5664,0.00085697,0.00013383,0.0,0 STARLINK-3674,1 51975U 22025V   22342.66501740  .00013383  00000-0  85697-3 0  9996,2 51975  53.2156 317.8951 0002868  15.5416 344.5664 15.08856173 43116,6917.831,95.437,541.68,537.712,0.0
51975.0,STARLINK-3674,PAYLOAD,2022-12-09 07:51:24,15.08998888,0.0003696,53.215,314.9238,314.2137,45.8551,0.0056714,0.00091552,0.0,0 STARLINK-3674,1 51975U 22025V   22343.32737248  .00091552  00000-0  56714-2 0  9995,2 51975  53.2150 314.9238 0003696 314.2137  45.8551 15.08998888 43212,6917.395,95.428,541.816,536.703,0.0
51975.0,STARLINK-3674,PAYLOAD,2022-12-09 15:48:22,15.08807369,0.0004238,53.2149,313.437,304.9755,55.0839,-0.0022542,-0.00035961,0.0,0 STARLINK-3674,1 51975U 22025V   22343.65859508 -.00035961  00000-0 -22542-2 0  9991,2 51975  53.2149 313.4370 0004238 304.9755  55.0839 15.08807369 43266,6917.98,95.44,542.7769999999998,536.913,0.0
51975.0,STARLINK-3674,PAYLOAD,2022-12-10 04:31:28,15.08830093,0.0002517,53.2153,311.0587,2.6742,357.4263,-9.4539e-05,-1.792e-05,0.0,0 STARLINK-3674,1 51975U 22025V   22344.18852894 -.00001792  00000-0 -94539-4 0  9993,2 51975  53.2153 311.0587 0002517   2.6742 357.4263 15.08830093 43340,6917.911,95.438,541.5169999999998,538.034,0.0
51975.0,STARLINK-3674,PAYLOAD,2022-12-10 07:42:15,15.08823364,0.0002861,53.2152,310.4637,1.4941,358.6059,-0.00031519,-5.299e-05,0.0,0 STARLINK-3674,1 51975U 22025V   22344.32101063 -.00005299  00000-0 -31519-3 0  9998,2 51975  53.2152 310.4637 0002861   1.4941 358.6059 15.08823364 42256,6917.931,95.439,541.775,537.817,0.0
51975.0,STARLINK-3674,PAYLOAD,2022-12-10 22:00:43,15.08862523,0.0002874,53.2156,307.7861,7.8487,352.255,0.0018976,0.00030061,0.0,0 STARLINK-3674,1 51975U 22025V   22344.91717177  .00030061  00000-0  18976-2 0  9996,2 51975  53.2156 307.7861 0002874   7.8487 352.2550 15.08862523 43456,6917.812,95.436,541.665,537.688,0.0
51975.0,STARLINK-3674,PAYLOAD,2022-12-11 02:46:53,15.0883237,0.0002905,53.2168,306.8935,21.3664,338.7449,0.00032582,4.9e-05,0.0,0 STARLINK-3674,1 51975U 22025V   22345.11589704  .00004900  00000-0  32582-3 0  9995,2 51975  53.2168 306.8935 0002905  21.3664 338.7449 15.08832370 43480,6917.904,95.438,541.778,537.759,0.0
51975.0,STARLINK-3674,PAYLOAD,2022-12-11 21:51:32,15.08825346,0.0002903,53.2173,303.3241,39.0829,321.0373,0.0002528,3.736e-05,0.0,0 STARLINK-3674,1 51975U 22025V   22345.91079014  .00003736  00000-0  25280-3 0  9994,2 51975  53.2173 303.3241 0002903  39.0829 321.0373 15.08825346 43605,6917.925,95.438,541.798,537.7819999999998,0.0
51975.0,STARLINK-3674,PAYLOAD,2022-12-12 05:48:28,15.08831415,0.0002958,53.2164,301.8369,31.1886,328.9282,0.00042109,6.418e-05,0.0,0 STARLINK-3674,1 51975U 22025V   22346.24199288  .00006418  00000-0  42109-3 0  9996,2 51975  53.2164 301.8369 0002958  31.1886 328.9282 15.08831415 42546,6917.906999999997,95.438,541.818,537.725,0.0
51975.0,STARLINK-3674,PAYLOAD,2022-12-13 04:03:51,15.08838265,0.0002984,53.2169,297.6735,29.6256,330.4904,0.00039324,5.975e-05,0.0,0 STARLINK-3674,1 51975U 22025V   22347.16935161  .00005975  00000-0  39324-3 0  9998,2 51975  53.2169 297.6735 0002984  29.6256 330.4904 15.08838265 43799,6917.886,95.438,541.815,537.686,0.0
51975.0,STARLINK-3674,PAYLOAD,2022-12-13 07:14:38,15.08836225,0.0002929,53.2166,297.0795,29.79,330.3258,0.00011646,1.565e-05,0.0,0 STARLINK-3674,1 51975U 22025V   22347.30183212  .00001565  00000-0  11646-3 0  9994,2 51975  53.2166 297.0795 0002929  29.7900 330.3258 15.08836225 42707,6917.892,95.438,541.783,537.731,0.0
51975.0,STARLINK-3674,PAYLOAD,2022-12-13 21:33:06,15.08837819,0.0002869,53.2168,294.4029,31.6043,328.5121,8.6195e-05,1.083e-05,0.0,0 STARLINK-3674,1 51975U 22025V   22347.89799250  .00001083  00000-0  86195-4 0  9990,2 51975  53.2168 294.4029 0002869  31.6043 328.5121 15.08837819 42790,6917.887,95.438,541.737,537.7669999999998,0.0
51975.0,STARLINK-3674,PAYLOAD,2022-12-14 05:30:02,15.08839921,0.0002934,53.2168,292.9163,31.5837,328.5331,5.6743e-05,6.15e-06,0.0,0 STARLINK-3674,1 51975U 22025V   22348.22919259  .00000615  00000-0  56743-4 0  9997,2 51975  53.2168 292.9163 0002934  31.5837 328.5331 15.08839921 43953,6917.880999999999,95.438,541.775,537.716,0.0
51975.0,STARLINK-3674,PAYLOAD,2022-12-14 13:26:58,15.08835823,0.0002926,53.2157,291.4303,29.5671,330.5486,7.9994e-06,-1.61e-06,0.0,0 STARLINK-3674,1 51975U 22025V   22348.56039551 -.00000161  00000-0  79994-5 0  9993,2 51975  53.2157 291.4303 0002926  29.5671 330.5486 15.08835823 42898,6917.893,95.438,541.7819999999998,537.734,0.0
51975.0,STARLINK-3674,PAYLOAD,2022-12-15 06:56:13,15.08828871,0.0002956,53.2167,288.1583,28.3775,331.7377,2.1794e-05,5.8e-07,0.0,0 STARLINK-3674,1 51975U 22025V   22349.28904468  .00000058  00000-0  21794-4 0  9999,2 51975  53.2167 288.1583 0002956  28.3775 331.7377 15.08828871 44111,6917.9140000000025,95.438,541.8240000000002,537.734,0.0
51975.0,STARLINK-3674,PAYLOAD,2022-12-15 08:31:36,15.0882644,0.0003013999999999,53.2159,287.8612,28.1332,331.9822,-8.2021e-05,-1.593e-05,0.0,0 STARLINK-3674,1 51975U 22025V   22349.35528194 -.00001593  00000-0 -82021-4 0  9992,2 51975  53.2159 287.8612 0003014  28.1332 331.9822 15.08826440 43019,6917.922,95.438,541.872,537.702,0.0
51975.0,STARLINK-3674,PAYLOAD,2022-12-15 19:39:18,15.08832921,0.0002901999999999,53.215,285.7804,28.0933,332.0216,1.9162e-05,1.6e-07,0.0,0 STARLINK-3674,1 51975U 22025V   22349.81896056  .00000016  00000-0  19162-4 0  9991,2 51975  53.2150 285.7804 0002902  28.0933 332.0216 15.08832921 43088,6917.901999999999,95.438,541.775,537.759,0.0
51975.0,STARLINK-3674,PAYLOAD,2022-12-16 00:25:27,15.08835948,0.000306,53.2148,284.8894,28.9877,331.1285,7.0134e-05,8.28e-06,0.0,0 STARLINK-3674,1 51975U 22025V   22350.01768012  .00000828  00000-0  70134-4 0  9992,2 51975  53.2148 284.8894 0003060  28.9877 331.1285 15.08835948 44221,6917.893,95.438,541.875,537.641,0.0
